{
  "type": "FeatureCollection",
  "features": [
    {
      "type": "Feature",
      "properties": {
        "norad_id": 37781,
        "name": "HAIYANG-2A",
        "group": "resource",
        "lat": 52.66573341110062,
        "lon": -168.08984512484304,
        "alt_km": 962.4069356536766,
        "timestamp": "2025-12-24T16:52:41.157128+00:00",
        "meta_object_name": "HAIYANG-2A",
        "meta_object_id": "2011-043A",
        "meta_epoch": "2025-12-24T07:33:37.666656",
        "meta_mean_motion": 13.7883712,
        "meta_eccentricity": 0.00016109,
        "meta_inclination": 99.3375,
        "meta_ra_of_asc_node": 359.0709,
        "meta_arg_of_pericenter": 67.9487,
        "meta_mean_anomaly": 292.1836,
        "meta_ephemeris_type": 0,
        "meta_classification_type": "U",
        "meta_norad_cat_id": 37781,
        "meta_element_set_no": 999,
        "meta_rev_at_epoch": 72258,
        "meta_bstar": 0.00034523547,
        "meta_mean_motion_dot": 3.07e-06,
        "meta_mean_motion_ddot": 0,
        "tle_line1": "1 37781U 11043A   25358.31501929  .00000307  00000+0  34524-3 0  9998",
        "tle_line2": "2 37781  99.3375 359.0709 0001610  67.9487 292.1836 13.78837120722581"
      },
      "geometry": {
        "type": "Point",
        "coordinates": [
          -168.08984512484304,
          52.66573341110062
        ]
      }
    },
    {
      "type": "Feature",
      "properties": {
        "norad_id": 37791,
        "name": "RASAT",
        "group": "resource",
        "lat": 65.24592980871776,
        "lon": -74.30806340805749,
        "alt_km": 659.8814180347499,
        "timestamp": "2025-12-24T16:52:41.157145+00:00",
        "meta_object_name": "RASAT",
        "meta_object_id": "2011-044D",
        "meta_epoch": "2025-12-24T06:58:05.926368",
        "meta_mean_motion": 14.67923783,
        "meta_eccentricity": 0.00213302,
        "meta_inclination": 98.0646,
        "meta_ra_of_asc_node": 87.3767,
        "meta_arg_of_pericenter": 30.1749,
        "meta_mean_anomaly": 62.3056,
        "meta_ephemeris_type": 0,
        "meta_classification_type": "U",
        "meta_norad_cat_id": 37791,
        "meta_element_set_no": 999,
        "meta_rev_at_epoch": 76752,
        "meta_bstar": 7.4225977e-05,
        "meta_mean_motion_dot": 3.77e-06,
        "meta_mean_motion_ddot": 0,
        "tle_line1": "1 37791U 11044D   25358.29034637  .00000377  00000+0  74226-4 0  9995",
        "tle_line2": "2 37791  98.0646  87.3767 0021330  30.1749  62.3056 14.67923783767522"
      },
      "geometry": {
        "type": "Point",
        "coordinates": [
          -74.30806340805749,
          65.24592980871776
        ]
      }
    },
    {
      "type": "Feature",
      "properties": {
        "norad_id": 37841,
        "name": "SRMSAT",
        "group": "resource",
        "lat": 7.292862671116579,
        "lon": -165.08243894517736,
        "alt_km": 848.4322468634045,
        "timestamp": "2025-12-24T16:52:41.157156+00:00",
        "meta_object_name": "SRMSAT",
        "meta_object_id": "2011-058D",
        "meta_epoch": "2025-12-24T06:16:52.796352",
        "meta_mean_motion": 14.11515202,
        "meta_eccentricity": 0.00119946,
        "meta_inclination": 19.973,
        "meta_ra_of_asc_node": 38.2189,
        "meta_arg_of_pericenter": 79.525,
        "meta_mean_anomaly": 349.9984,
        "meta_ephemeris_type": 0,
        "meta_classification_type": "U",
        "meta_norad_cat_id": 37841,
        "meta_element_set_no": 999,
        "meta_rev_at_epoch": 73307,
        "meta_bstar": 8.8145901e-05,
        "meta_mean_motion_dot": 4.27e-06,
        "meta_mean_motion_ddot": 0,
        "tle_line1": "1 37841U 11058D   25358.26172218  .00000427  00000+0  88146-4 0  9993",
        "tle_line2": "2 37841  19.9730  38.2189 0011994  79.5250 349.9984 14.11515202733075"
      },
      "geometry": {
        "type": "Point",
        "coordinates": [
          -165.08243894517736,
          7.292862671116579
        ]
      }
    },
    {
      "type": "Feature",
      "properties": {
        "norad_id": 38012,
        "name": "PLEIADES 1A",
        "group": "resource",
        "lat": -45.764703643679944,
        "lon": -117.20980956471557,
        "alt_km": 705.2203280345921,
        "timestamp": "2025-12-24T16:52:41.157167+00:00",
        "meta_object_name": "PLEIADES 1A",
        "meta_object_id": "2011-076F",
        "meta_epoch": "2025-12-24T07:57:15.276384",
        "meta_mean_motion": 14.58571756,
        "meta_eccentricity": 0.00010997,
        "meta_inclination": 98.1811,
        "meta_ra_of_asc_node": 70.9209,
        "meta_arg_of_pericenter": 76.3168,
        "meta_mean_anomaly": 358.7065,
        "meta_ephemeris_type": 0,
        "meta_classification_type": "U",
        "meta_norad_cat_id": 38012,
        "meta_element_set_no": 999,
        "meta_rev_at_epoch": 74650,
        "meta_bstar": 0.0001072463,
        "meta_mean_motion_dot": 4.53e-06,
        "meta_mean_motion_ddot": 0,
        "tle_line1": "1 38012U 11076F   25358.33142681  .00000453  00000+0  10725-3 0  9999",
        "tle_line2": "2 38012  98.1811  70.9209 0001099  76.3168 358.7065 14.58571756746506"
      },
      "geometry": {
        "type": "Point",
        "coordinates": [
          -117.20980956471557,
          -45.764703643679944
        ]
      }
    },
    {
      "type": "Feature",
      "properties": {
        "norad_id": 38038,
        "name": "ZIYUAN 1-02C (ZY 1-02C)",
        "group": "resource",
        "lat": -29.263857709644586,
        "lon": 69.26357358853124,
        "alt_km": 774.8324952847697,
        "timestamp": "2025-12-24T16:52:41.157177+00:00",
        "meta_object_name": "ZIYUAN 1-02C (ZY 1-02C)",
        "meta_object_id": "2011-079A",
        "meta_epoch": "2025-12-24T07:24:05.586336",
        "meta_mean_motion": 14.38024911,
        "meta_eccentricity": 0.0007568,
        "meta_inclination": 98.4318,
        "meta_ra_of_asc_node": 64.1084,
        "meta_arg_of_pericenter": 108.3567,
        "meta_mean_anomaly": 339.2492,
        "meta_ephemeris_type": 0,
        "meta_classification_type": "U",
        "meta_norad_cat_id": 38038,
        "meta_element_set_no": 999,
        "meta_rev_at_epoch": 73407,
        "meta_bstar": 0.0002216136,
        "meta_mean_motion_dot": 6.28e-06,
        "meta_mean_motion_ddot": 0,
        "tle_line1": "1 38038U 11079A   25358.30839799  .00000628  00000+0  22161-3 0  9991",
        "tle_line2": "2 38038  98.4318  64.1084 0007568 108.3567 339.2492 14.38024911734072"
      },
      "geometry": {
        "type": "Point",
        "coordinates": [
          69.26357358853124,
          -29.263857709644586
        ]
      }
    },
    {
      "type": "Feature",
      "properties": {
        "norad_id": 38338,
        "name": "ARIRANG-3 (KOMPSAT-3)",
        "group": "resource",
        "lat": -76.59874080331771,
        "lon": 95.41430575153474,
        "alt_km": 692.2411283694737,
        "timestamp": "2025-12-24T16:52:41.157188+00:00",
        "meta_object_name": "ARIRANG-3 (KOMPSAT-3)",
        "meta_object_id": "2012-025B",
        "meta_epoch": "2025-12-24T07:28:47.845632",
        "meta_mean_motion": 14.61727151,
        "meta_eccentricity": 0.00047247,
        "meta_inclination": 98.3339,
        "meta_ra_of_asc_node": 312.9892,
        "meta_arg_of_pericenter": 297.2951,
        "meta_mean_anomaly": 62.7768,
        "meta_ephemeris_type": 0,
        "meta_classification_type": "U",
        "meta_norad_cat_id": 38338,
        "meta_element_set_no": 999,
        "meta_rev_at_epoch": 72579,
        "meta_bstar": 0.00012358638,
        "meta_mean_motion_dot": 5.67e-06,
        "meta_mean_motion_ddot": 0,
        "tle_line1": "1 38338U 12025B   25358.31166488  .00000567  00000+0  12359-3 0  9995",
        "tle_line2": "2 38338  98.3339 312.9892 0004724 297.2951  62.7768 14.61727151725799"
      },
      "geometry": {
        "type": "Point",
        "coordinates": [
          95.41430575153474,
          -76.59874080331771
        ]
      }
    },
    {
      "type": "Feature",
      "properties": {
        "norad_id": 38709,
        "name": "EXACTVIEW-1 (ADS-1B)",
        "group": "resource",
        "lat": 63.72917078333448,
        "lon": -54.00692567130612,
        "alt_km": 809.2289224690303,
        "timestamp": "2025-12-24T16:52:41.157199+00:00",
        "meta_object_name": "EXACTVIEW-1 (ADS-1B)",
        "meta_object_id": "2012-039C",
        "meta_epoch": "2025-12-24T06:13:47.181504",
        "meta_mean_motion": 14.24912368,
        "meta_eccentricity": 0.00101695,
        "meta_inclination": 98.9637,
        "meta_ra_of_asc_node": 106.8914,
        "meta_arg_of_pericenter": 319.6218,
        "meta_mean_anomaly": 40.4205,
        "meta_ephemeris_type": 0,
        "meta_classification_type": "U",
        "meta_norad_cat_id": 38709,
        "meta_element_set_no": 999,
        "meta_rev_at_epoch": 69779,
        "meta_bstar": 8.1841312e-05,
        "meta_mean_motion_dot": 1.45e-06,
        "meta_mean_motion_ddot": 0,
        "tle_line1": "1 38709U 12039C   25358.25957386  .00000145  00000+0  81841-4 0  9995",
        "tle_line2": "2 38709  98.9637 106.8914 0010169 319.6218  40.4205 14.24912368697790"
      },
      "geometry": {
        "type": "Point",
        "coordinates": [
          -54.00692567130612,
          63.72917078333448
        ]
      }
    }
  ]
}